ASTRA 2E                
1 39285U 13056A   26176.17412068  .00000160  00000+0  00000+0 0  9998
2 39285   0.0644 326.6890 0002550 134.1844 263.6147  1.00270118 46496
FM-6                    
1 39360U 13058A   26176.14551491 -.00000006  00000+0  00000+0 0  9995
2 39360   0.0153  53.0092 0001675 127.8550  28.5097  1.00271074 46157
RADUGA-1M 3             
1 39375U 13062A   26174.94497397  .00000156  00000+0  00000+0 0  9991
2 39375   5.9757  72.2691 0001728 277.7410 297.2601  1.00272750 46174
SES-8                   
1 39460U 13071A   26175.90487203 -.00000260  00000+0  00000+0 0  9995
2 39460   0.0361 276.9393 0003005 178.3481 238.5105  1.00270781 44506
INMARSAT 5-F1           
1 39476U 13073A   26175.01645716  .00000034  00000+0  00000+0 0  9999
2 39476   0.0175  27.2031 0000641 334.6145 338.9064  1.00273060 45647
TKSAT-1 (TUPAC KATARI)  
1 39481U 13075A   26176.16973472 -.00000185  00000+0  00000+0 0  9995
2 39481   0.0072 115.5211 0002798 330.0728 161.6293  1.00272655 45680
EXPRESS-AM5             
1 39487U 13077A   26175.62977076 -.00000271  00000+0  00000+0 0  9993
2 39487   0.0141 295.1644 0000484  95.0564 249.3084  1.00274810 46435
GSAT-14                 
1 39498U 14001A   26176.03289008 -.00000068  00000+0  00000+0 0  9994
2 39498   0.0544  95.3227 0000608 147.0247 116.6513  1.00272108 45457
THAICOM 6               
1 39500U 14002A   26176.18408741 -.00000112  00000+0  00000+0 0  9992
2 39500   0.0492 127.2880 0004681 345.2208 305.6114  1.00273659 45535
TDRS 12                 
1 39504U 14004A   26176.07752986 -.00000265  00000+0  00000+0 0  9998
2 39504   3.9851  19.2339 0003132 188.3715  52.3548  1.00264951 44359
ABS-2                   
1 39508U 14006A   26176.03289008 -.00000077  00000+0  00000+0 0  9991
2 39508   0.0191   7.3306 0003977  71.0176 281.5790  1.00271993 45356
ATHENA-FIDUS            
1 39509U 14006B   26176.17602736  .00000000  00000+0  00000+0 0  9999
2 39509   0.0202  36.0488 0001637  50.1476 288.2902  1.00272753 45165
TURKSAT 4A              
1 39522U 14007A   26175.96299787  .00000155  00000+0  00000+0 0  9990
2 39522   0.0562 293.3200 0000639   6.9326   1.5182  1.00271410 45045
EXPRESS-AT1             
1 39612U 14010A   26176.01066831  .00000025  00000+0  00000+0 0  9999
2 39612   0.2785  85.6500 0004184  42.5053 212.0946  1.00305853 44899
EXPRESS-AT2             
1 39613U 14010B   26176.17958072  .00000088  00000+0  00000+0 0  9993
2 39613   0.0180 333.3396 0000308 336.9488  83.6818  1.00271960 44575
AMAZONAS 4A             
1 39616U 14011A   26176.15947412 -.00000243  00000+0  00000+0 0  9995
2 39616   0.0585 168.8345 0004259 305.6543 142.2282  1.00271820 44792
ASTRA 5B                
1 39617U 14011B   26176.17316735  .00000146  00000+0  00000+0 0  9997
2 39617   0.0553 321.7035 0002187 114.1665 283.2524  1.00271683 44747
IRNSS-1B                
1 39635U 14017A   26173.75560031  .00000117  00000+0  00000+0 0  9992
2 39635  28.9065 240.3095 0023496 164.9008 193.0039  1.00268591 44840
LUCH-5V                 
1 39727U 14023A   26175.11796622 -.00000265  00000+0  00000+0 0  9995
2 39727   5.1506  69.6806 0002285  46.6072 293.2066  1.00272561 44420
KAZSAT-3                
1 39728U 14023B   26175.85322424  .00000069  00000+0  00000+0 0  9993
2 39728   0.0111  22.0059 0000374  78.6042 178.0546  1.00272812 42531
EUTELSAT 3B             
1 39773U 14030A   26176.16909399  .00000029  00000+0  00000+0 0  9994
2 39773   0.0607 349.8498 0004244 102.2470 245.1887  1.00270733 44140
ASIASAT 8 (AMOS-7)      
1 40107U 14046A   26176.11808666 -.00000323  00000+0  00000+0 0  9992
2 40107   0.0379  78.3951 0001664  21.1947 321.4923  1.00270873102226
ASIASAT 6               
1 40141U 14052A   26175.97842462 -.00000353  00000+0  00000+0 0  9995
2 40141   0.0462 267.6466 0001002 199.9043 277.6951  1.00268906 43151
OPTUS 10                
1 40146U 14054A   26174.91603170 -.00000141  00000+0  00000+0 0  9991
2 40146   0.0950  37.6159 0002077  48.1190 312.1254  1.00271081 43095
MEASAT-3B               
1 40147U 14054B   26175.97279125 -.00000232  00000+0  00000+0 0  9999
2 40147   0.0400  43.7356 0003008  24.2115 286.8893  1.00270809 42980
HIMAWARI-8              
1 40267U 14060A   26175.91124344 -.00000267  00000+0  00000+0 0  9993
2 40267   0.0186 301.1639 0001493 154.6745 285.9169  1.00271080 42834
IRNSS-1C                
1 40269U 14061A   26174.91613389 -.00000157  00000+0  00000+0 0  9995
2 40269   6.5342  88.8035 0022624   3.2397 232.7468  1.00268265 42755
INTELSAT 30 (IS-30)     
1 40271U 14062A   26176.14967492 -.00000141  00000+0  00000+0 0  9996
2 40271   0.0274  54.2798 0001487 340.3838 197.4546  1.00270562  6873
ARSAT 1                 
1 40272U 14062B   26175.19451626 -.00000252  00000+0  00000+0 0  9991
2 40272   0.0170  30.7967 0002025  53.4254 186.3497  1.00271660 42691
EUTELSAT 53A            
1 40277U 14064A   26176.17897405  .00000108  00000+0  00000+0 0  9995
2 40277   0.0121 302.4831 0001117 235.8927 212.3809  1.00272038 41646
GSAT-16                 
1 40332U 14078A   26176.17940737  .00000094  00000+0  00000+0 0  9993
2 40332   0.0606 267.4644 0008018 176.3632 309.1368  1.00273213 42188
DIRECTV 14              
1 40333U 14078B   26175.18239096 -.00000118  00000+0  00000+0 0  9991
2 40333   0.0117  28.0808 0000217 350.4059 220.2724  1.00271057 42116
