OBJECT_NAME,OBJECT_ID,EPOCH,MEAN_MOTION,ECCENTRICITY,INCLINATION,RA_OF_ASC_NODE,ARG_OF_PERICENTER,MEAN_ANOMALY,EPHEMERIS_TYPE,CLASSIFICATION_TYPE,NORAD_CAT_ID,ELEMENT_SET_NO,REV_AT_EPOCH,BSTAR,MEAN_MOTION_DOT,MEAN_MOTION_DDOT
ASTRA 2E,2013-056A,2026-06-25T04:10:44.026752,1.00270118,.000255,0.0644,326.6890,134.1844,263.6147,0,U,39285,999,4649,0,.16E-5,0
FM-6,2013-058A,2026-06-25T03:29:32.488224,1.00271074,.0001675,0.0153,53.0092,127.8550,28.5097,0,U,39360,999,4615,0,-.6E-7,0
RADUGA-1M 3,2013-062A,2026-06-23T22:40:45.751008,1.00272750,.00017286,5.9757,72.2691,277.7410,297.2601,0,U,39375,999,4617,0,.156E-5,0
SES-8,2013-071A,2026-06-24T21:43:00.943392,1.00270781,.0003005,0.0361,276.9393,178.3481,238.5105,0,U,39460,999,4450,0,-.26E-5,0
INMARSAT 5-F1,2013-073A,2026-06-24T00:23:41.898624,1.00273060,.00006419,0.0175,27.2031,334.6145,338.9064,0,U,39476,999,4564,0,.34E-6,0
TKSAT-1 (TUPAC KATARI),2013-075A,2026-06-25T04:04:25.079808,1.00272655,.0002798,0.0072,115.5211,330.0728,161.6293,0,U,39481,999,4568,0,-.185E-5,0
EXPRESS-AM5,2013-077A,2026-06-24T15:06:52.193664,1.00274810,.0000484,0.0141,295.1644,95.0564,249.3084,0,U,39487,999,4643,0,-.271E-5,0
GSAT-14,2014-001A,2026-06-25T00:47:21.702912,1.00272108,.0000608,0.0544,95.3227,147.0247,116.6513,0,U,39498,999,4545,0,-.68E-6,0
THAICOM 6,2014-002A,2026-06-25T04:25:05.152224,1.00273659,.0004681,0.0492,127.2880,345.2208,305.6114,0,U,39500,999,4553,0,-.112E-5,0
TDRS 12,2014-004A,2026-06-25T01:51:38.579904,1.00264951,.0003132,3.9851,19.2339,188.3715,52.3548,0,U,39504,999,4435,0,-.265E-5,0
ABS-2,2014-006A,2026-06-25T00:47:21.702912,1.00271993,.0003977,0.0191,7.3306,71.0176,281.5790,0,U,39508,999,4535,0,-.77E-6,0
ATHENA-FIDUS,2014-006B,2026-06-25T04:13:28.763904,1.00272753,.0001637,0.0202,36.0488,50.1476,288.2902,0,U,39509,999,4516,0,0,0
TURKSAT 4A,2014-007A,2026-06-24T23:06:43.015968,1.00271410,.0000639,0.0562,293.3200,6.9326,1.5182,0,U,39522,999,4504,0,.155E-5,0
EXPRESS-AT1,2014-010A,2026-06-25T00:15:21.741984,1.00305853,.0004184,0.2785,85.6500,42.5053,212.0946,0,U,39612,999,4489,0,.25E-6,0
EXPRESS-AT2,2014-010B,2026-06-25T04:18:35.774208,1.00271960,.0000308,0.0180,333.3396,336.9488,83.6818,0,U,39613,999,4457,0,.88E-6,0
AMAZONAS 4A,2014-011A,2026-06-25T03:49:38.563968,1.00271820,.0004259,0.0585,168.8345,305.6543,142.2282,0,U,39616,999,4479,0,-.243E-5,0
ASTRA 5B,2014-011B,2026-06-25T04:09:21.659040,1.00271683,.0002187,0.0553,321.7035,114.1665,283.2524,0,U,39617,999,4474,0,.146E-5,0
IRNSS-1B,2014-017A,2026-06-22T18:08:03.866784,1.00268591,.00234964,28.9065,240.3095,164.9008,193.0039,0,U,39635,999,4484,0,.117E-5,0
LUCH-5V,2014-023A,2026-06-24T02:49:52.281408,1.00272561,.00022853,5.1506,69.6806,46.6072,293.2066,0,U,39727,999,4442,0,-.265E-5,0
KAZSAT-3,2014-023B,2026-06-24T20:28:38.574336,1.00272812,.0000374,0.0111,22.0059,78.6042,178.0546,0,U,39728,999,4253,0,.69E-6,0
EUTELSAT 3B,2014-030A,2026-06-25T04:03:29.720736,1.00270733,.0004244,0.0607,349.8498,102.2470,245.1887,0,U,39773,999,4414,0,.29E-6,0
ASIASAT 8 (AMOS-7),2014-046A,2026-06-25T02:50:02.687424,1.00270873,.0001664,0.0379,78.3951,21.1947,321.4923,0,U,40107,999,10222,0,-.323E-5,0
ASIASAT 6,2014-052A,2026-06-24T23:28:55.887168,1.00268906,.0001002,0.0462,267.6466,199.9043,277.6951,0,U,40141,999,4315,0,-.353E-5,0
OPTUS 10,2014-054A,2026-06-23T21:59:05.138880,1.00271081,.00020779,0.0950,37.6159,48.1190,312.1254,0,U,40146,999,4309,0,-.141E-5,0
MEASAT-3B,2014-054B,2026-06-24T23:20:49.164000,1.00270809,.0003008,0.0400,43.7356,24.2115,286.8893,0,U,40147,999,4298,0,-.232E-5,0
HIMAWARI-8,2014-060A,2026-06-24T21:52:11.433216,1.00271080,.0001493,0.0186,301.1639,154.6745,285.9169,0,U,40267,999,4283,0,-.267E-5,0
IRNSS-1C,2014-061A,2026-06-23T21:59:13.968096,1.00268265,.00226241,6.5342,88.8035,3.2397,232.7468,0,U,40269,999,4275,0,-.157E-5,0
INTELSAT 30 (IS-30),2014-062A,2026-06-25T03:35:31.913088,1.00270562,.0001487,0.0274,54.2798,340.3838,197.4546,0,U,40271,999,687,0,-.141E-5,0
ARSAT 1,2014-062B,2026-06-24T04:40:06.204864,1.00271660,.00020257,0.0170,30.7967,53.4254,186.3497,0,U,40272,999,4269,0,-.252E-5,0
EUTELSAT 53A,2014-064A,2026-06-25T04:17:43.357920,1.00272038,.0001117,0.0121,302.4831,235.8927,212.3809,0,U,40277,999,4164,0,.108E-5,0
GSAT-16,2014-078A,2026-06-25T04:18:20.796768,1.00273213,.0008018,0.0606,267.4644,176.3632,309.1368,0,U,40332,999,4218,0,.94E-6,0
DIRECTV 14,2014-078B,2026-06-24T04:22:38.578944,1.00271057,.00002177,0.0117,28.0808,350.4059,220.2724,0,U,40333,999,4211,0,-.118E-5,0
